; ModelPeek Continuous Spiral Vase G-Code
M104 S210 ; Set nozzle temp
M140 S60  ; Set bed temp
G28       ; Home all axes
G92 E0    ; Reset extruder
G1 Z0.2 F3000
G1 X155.000 Y110.000 Z0.350 E0.280 F1800
G1 X158.931 Y123.111 Z0.500 E0.560 F1800
G1 X155.899 Y136.500 Z0.650 E0.840 F1800
G1 X145.820 Y145.820 Z0.800 E1.120 F1800
G1 X132.500 Y148.971 Z0.950 E1.400 F1800
G1 X120.183 Y148.003 Z1.100 E1.680 F1800
G1 X110.000 Y147.000 Z1.250 E1.960 F1800
G1 X99.817 Y148.003 Z1.400 E2.240 F1800
G1 X87.500 Y148.971 Z1.550 E2.520 F1800
G1 X74.180 Y145.820 Z1.700 E2.800 F1800
G1 X64.101 Y136.500 Z1.850 E3.080 F1800
G1 X61.069 Y123.111 Z2.000 E3.360 F1800
G1 X65.000 Y110.000 Z2.150 E3.640 F1800
G1 X71.997 Y99.817 Z2.300 E3.920 F1800
G1 X77.957 Y91.500 Z2.450 E4.200 F1800
G1 X82.180 Y82.180 Z2.600 E4.480 F1800
G1 X87.500 Y71.029 Z2.750 E4.760 F1800
G1 X96.889 Y61.069 Z2.900 E5.040 F1800
G1 X110.000 Y57.000 Z3.050 E5.320 F1800
G1 X123.111 Y61.069 Z3.200 E5.600 F1800
G1 X132.500 Y71.029 Z3.350 E5.880 F1800
G1 X137.820 Y82.180 Z3.500 E6.160 F1800
G1 X142.043 Y91.500 Z3.650 E6.440 F1800
G1 X148.003 Y99.817 Z3.800 E6.720 F1800
G1 X155.000 Y110.000 Z3.950 E7.000 F1800
G1 X158.931 Y123.111 Z4.100 E7.280 F1800
G1 X155.899 Y136.500 Z4.250 E7.560 F1800
G1 X145.820 Y145.820 Z4.400 E7.840 F1800
G1 X132.500 Y148.971 Z4.550 E8.120 F1800
G1 X120.183 Y148.003 Z4.700 E8.400 F1800
G1 X110.000 Y147.000 Z4.850 E8.680 F1800
G1 X99.817 Y148.003 Z5.000 E8.960 F1800
G1 X87.500 Y148.971 Z5.150 E9.240 F1800
G1 X74.180 Y145.820 Z5.300 E9.520 F1800
G1 X64.101 Y136.500 Z5.450 E9.800 F1800
G1 X61.069 Y123.111 Z5.600 E10.080 F1800
G1 X65.000 Y110.000 Z5.750 E10.360 F1800
G1 X71.997 Y99.817 Z5.900 E10.640 F1800
G1 X77.957 Y91.500 Z6.050 E10.920 F1800
G1 X82.180 Y82.180 Z6.200 E11.200 F1800
G1 X87.500 Y71.029 Z6.350 E11.480 F1800
G1 X96.889 Y61.069 Z6.500 E11.760 F1800
G1 X110.000 Y57.000 Z6.650 E12.040 F1800
G1 X123.111 Y61.069 Z6.800 E12.320 F1800
G1 X132.500 Y71.029 Z6.950 E12.600 F1800
G1 X137.820 Y82.180 Z7.100 E12.880 F1800
G1 X142.043 Y91.500 Z7.250 E13.160 F1800
G1 X148.003 Y99.817 Z7.400 E13.440 F1800
G1 X155.000 Y110.000 Z7.550 E13.720 F1800
G1 X158.931 Y123.111 Z7.700 E14.000 F1800
G1 X155.899 Y136.500 Z7.850 E14.280 F1800
G1 X145.820 Y145.820 Z8.000 E14.560 F1800
G1 X132.500 Y148.971 Z8.150 E14.840 F1800
G1 X120.183 Y148.003 Z8.300 E15.120 F1800
G1 X110.000 Y147.000 Z8.450 E15.400 F1800
G1 X99.817 Y148.003 Z8.600 E15.680 F1800
G1 X87.500 Y148.971 Z8.750 E15.960 F1800
G1 X74.180 Y145.820 Z8.900 E16.240 F1800
G1 X64.101 Y136.500 Z9.050 E16.520 F1800
G1 X61.069 Y123.111 Z9.200 E16.800 F1800
G1 X65.000 Y110.000 Z9.350 E17.080 F1800
G1 X71.997 Y99.817 Z9.500 E17.360 F1800
G1 X77.957 Y91.500 Z9.650 E17.640 F1800
G1 X82.180 Y82.180 Z9.800 E17.920 F1800
G1 X87.500 Y71.029 Z9.950 E18.200 F1800
G1 X96.889 Y61.069 Z10.100 E18.480 F1800
G1 X110.000 Y57.000 Z10.250 E18.760 F1800
G1 X123.111 Y61.069 Z10.400 E19.040 F1800
G1 X132.500 Y71.029 Z10.550 E19.320 F1800
G1 X137.820 Y82.180 Z10.700 E19.600 F1800
G1 X142.043 Y91.500 Z10.850 E19.880 F1800
G1 X148.003 Y99.817 Z11.000 E20.160 F1800
G1 X155.000 Y110.000 Z11.150 E20.440 F1800
G1 X158.931 Y123.111 Z11.300 E20.720 F1800
G1 X155.899 Y136.500 Z11.450 E21.000 F1800
G1 X145.820 Y145.820 Z11.600 E21.280 F1800
G1 X132.500 Y148.971 Z11.750 E21.560 F1800
G1 X120.183 Y148.003 Z11.900 E21.840 F1800
G1 X110.000 Y147.000 Z12.050 E22.120 F1800
G1 X99.817 Y148.003 Z12.200 E22.400 F1800
G1 X87.500 Y148.971 Z12.350 E22.680 F1800
G1 X74.180 Y145.820 Z12.500 E22.960 F1800
G1 X64.101 Y136.500 Z12.650 E23.240 F1800
G1 X61.069 Y123.111 Z12.800 E23.520 F1800
G1 X65.000 Y110.000 Z12.950 E23.800 F1800
G1 X71.997 Y99.817 Z13.100 E24.080 F1800
G1 X77.957 Y91.500 Z13.250 E24.360 F1800
G1 X82.180 Y82.180 Z13.400 E24.640 F1800
G1 X87.500 Y71.029 Z13.550 E24.920 F1800
G1 X96.889 Y61.069 Z13.700 E25.200 F1800
G1 X110.000 Y57.000 Z13.850 E25.480 F1800
G1 X123.111 Y61.069 Z14.000 E25.760 F1800
G1 X132.500 Y71.029 Z14.150 E26.040 F1800
G1 X137.820 Y82.180 Z14.300 E26.320 F1800
G1 X142.043 Y91.500 Z14.450 E26.600 F1800
G1 X148.003 Y99.817 Z14.600 E26.880 F1800
G1 X155.000 Y110.000 Z14.750 E27.160 F1800
G1 X158.931 Y123.111 Z14.900 E27.440 F1800
G1 X155.899 Y136.500 Z15.050 E27.720 F1800
G1 X145.820 Y145.820 Z15.200 E28.000 F1800
G1 X132.500 Y148.971 Z15.350 E28.280 F1800
G1 X120.183 Y148.003 Z15.500 E28.560 F1800
G1 X110.000 Y147.000 Z15.650 E28.840 F1800
G1 X99.817 Y148.003 Z15.800 E29.120 F1800
G1 X87.500 Y148.971 Z15.950 E29.400 F1800
G1 X74.180 Y145.820 Z16.100 E29.680 F1800
G1 X64.101 Y136.500 Z16.250 E29.960 F1800
G1 X61.069 Y123.111 Z16.400 E30.240 F1800
G1 X65.000 Y110.000 Z16.550 E30.520 F1800
G1 X71.997 Y99.817 Z16.700 E30.800 F1800
G1 X77.957 Y91.500 Z16.850 E31.080 F1800
G1 X82.180 Y82.180 Z17.000 E31.360 F1800
G1 X87.500 Y71.029 Z17.150 E31.640 F1800
G1 X96.889 Y61.069 Z17.300 E31.920 F1800
G1 X110.000 Y57.000 Z17.450 E32.200 F1800
G1 X123.111 Y61.069 Z17.600 E32.480 F1800
G1 X132.500 Y71.029 Z17.750 E32.760 F1800
G1 X137.820 Y82.180 Z17.900 E33.040 F1800
G1 X142.043 Y91.500 Z18.050 E33.320 F1800
G1 X148.003 Y99.817 Z18.200 E33.600 F1800
G1 X155.000 Y110.000 Z18.350 E33.880 F1800
G1 X158.931 Y123.111 Z18.500 E34.160 F1800
G1 X155.899 Y136.500 Z18.650 E34.440 F1800
G1 X145.820 Y145.820 Z18.800 E34.720 F1800
G1 X132.500 Y148.971 Z18.950 E35.000 F1800
G1 X120.183 Y148.003 Z19.100 E35.280 F1800
G1 X110.000 Y147.000 Z19.250 E35.560 F1800
G1 X99.817 Y148.003 Z19.400 E35.840 F1800
G1 X87.500 Y148.971 Z19.550 E36.120 F1800
G1 X74.180 Y145.820 Z19.700 E36.400 F1800
G1 X64.101 Y136.500 Z19.850 E36.680 F1800
G1 X61.069 Y123.111 Z20.000 E36.960 F1800
G1 X65.000 Y110.000 Z20.150 E37.240 F1800
G1 X71.997 Y99.817 Z20.300 E37.520 F1800
G1 X77.957 Y91.500 Z20.450 E37.800 F1800
G1 X82.180 Y82.180 Z20.600 E38.080 F1800
G1 X87.500 Y71.029 Z20.750 E38.360 F1800
G1 X96.889 Y61.069 Z20.900 E38.640 F1800
G1 X110.000 Y57.000 Z21.050 E38.920 F1800
G1 X123.111 Y61.069 Z21.200 E39.200 F1800
G1 X132.500 Y71.029 Z21.350 E39.480 F1800
G1 X137.820 Y82.180 Z21.500 E39.760 F1800
G1 X142.043 Y91.500 Z21.650 E40.040 F1800
G1 X148.003 Y99.817 Z21.800 E40.320 F1800
G1 X155.000 Y110.000 Z21.950 E40.600 F1800
G1 X158.931 Y123.111 Z22.100 E40.880 F1800
G1 X155.899 Y136.500 Z22.250 E41.160 F1800
G1 X145.820 Y145.820 Z22.400 E41.440 F1800
G1 X132.500 Y148.971 Z22.550 E41.720 F1800
G1 X120.183 Y148.003 Z22.700 E42.000 F1800
G1 X110.000 Y147.000 Z22.850 E42.280 F1800
G1 X99.817 Y148.003 Z23.000 E42.560 F1800
G1 X87.500 Y148.971 Z23.150 E42.840 F1800
G1 X74.180 Y145.820 Z23.300 E43.120 F1800
G1 X64.101 Y136.500 Z23.450 E43.400 F1800
G1 X61.069 Y123.111 Z23.600 E43.680 F1800
G1 X65.000 Y110.000 Z23.750 E43.960 F1800
G1 X71.997 Y99.817 Z23.900 E44.240 F1800
G1 X77.957 Y91.500 Z24.050 E44.520 F1800
G1 X82.180 Y82.180 Z24.200 E44.800 F1800
G1 X87.500 Y71.029 Z24.350 E45.080 F1800
G1 X96.889 Y61.069 Z24.500 E45.360 F1800
G1 X110.000 Y57.000 Z24.650 E45.640 F1800
G1 X123.111 Y61.069 Z24.800 E45.920 F1800
G1 X132.500 Y71.029 Z24.950 E46.200 F1800
G1 X137.820 Y82.180 Z25.100 E46.480 F1800
G1 X142.043 Y91.500 Z25.250 E46.760 F1800
G1 X148.003 Y99.817 Z25.400 E47.040 F1800
G1 X155.000 Y110.000 Z25.550 E47.320 F1800
G1 X158.931 Y123.111 Z25.700 E47.600 F1800
G1 X155.899 Y136.500 Z25.850 E47.880 F1800
G1 X145.820 Y145.820 Z26.000 E48.160 F1800
G1 X132.500 Y148.971 Z26.150 E48.440 F1800
G1 X120.183 Y148.003 Z26.300 E48.720 F1800
G1 X110.000 Y147.000 Z26.450 E49.000 F1800
G1 X99.817 Y148.003 Z26.600 E49.280 F1800
G1 X87.500 Y148.971 Z26.750 E49.560 F1800
G1 X74.180 Y145.820 Z26.900 E49.840 F1800
G1 X64.101 Y136.500 Z27.050 E50.120 F1800
G1 X61.069 Y123.111 Z27.200 E50.400 F1800
G1 X65.000 Y110.000 Z27.350 E50.680 F1800
G1 X71.997 Y99.817 Z27.500 E50.960 F1800
G1 X77.957 Y91.500 Z27.650 E51.240 F1800
G1 X82.180 Y82.180 Z27.800 E51.520 F1800
G1 X87.500 Y71.029 Z27.950 E51.800 F1800
G1 X96.889 Y61.069 Z28.100 E52.080 F1800
G1 X110.000 Y57.000 Z28.250 E52.360 F1800
G1 X123.111 Y61.069 Z28.400 E52.640 F1800
G1 X132.500 Y71.029 Z28.550 E52.920 F1800
G1 X137.820 Y82.180 Z28.700 E53.200 F1800
G1 X142.043 Y91.500 Z28.850 E53.480 F1800
G1 X148.003 Y99.817 Z29.000 E53.760 F1800
G1 X155.000 Y110.000 Z29.150 E54.040 F1800
G1 X158.931 Y123.111 Z29.300 E54.320 F1800
G1 X155.899 Y136.500 Z29.450 E54.600 F1800
G1 X145.820 Y145.820 Z29.600 E54.880 F1800
G1 X132.500 Y148.971 Z29.750 E55.160 F1800
G1 X120.183 Y148.003 Z29.900 E55.440 F1800
G1 X110.000 Y147.000 Z30.050 E55.720 F1800
G1 X99.817 Y148.003 Z30.200 E56.000 F1800
G1 X87.500 Y148.971 Z30.350 E56.280 F1800
G1 X74.180 Y145.820 Z30.500 E56.560 F1800
G1 X64.101 Y136.500 Z30.650 E56.840 F1800
G1 X61.069 Y123.111 Z30.800 E57.120 F1800
G1 X65.000 Y110.000 Z30.950 E57.400 F1800
G1 X71.997 Y99.817 Z31.100 E57.680 F1800
G1 X77.957 Y91.500 Z31.250 E57.960 F1800
G1 X82.180 Y82.180 Z31.400 E58.240 F1800
G1 X87.500 Y71.029 Z31.550 E58.520 F1800
G1 X96.889 Y61.069 Z31.700 E58.800 F1800
G1 X110.000 Y57.000 Z31.850 E59.080 F1800
G1 X123.111 Y61.069 Z32.000 E59.360 F1800
G1 X132.500 Y71.029 Z32.150 E59.640 F1800
G1 X137.820 Y82.180 Z32.300 E59.920 F1800
G1 X142.043 Y91.500 Z32.450 E60.200 F1800
G1 X148.003 Y99.817 Z32.600 E60.480 F1800
G1 X155.000 Y110.000 Z32.750 E60.760 F1800
G1 X158.931 Y123.111 Z32.900 E61.040 F1800
G1 X155.899 Y136.500 Z33.050 E61.320 F1800
G1 X145.820 Y145.820 Z33.200 E61.600 F1800
G1 X132.500 Y148.971 Z33.350 E61.880 F1800
G1 X120.183 Y148.003 Z33.500 E62.160 F1800
G1 X110.000 Y147.000 Z33.650 E62.440 F1800
G1 X99.817 Y148.003 Z33.800 E62.720 F1800
G1 X87.500 Y148.971 Z33.950 E63.000 F1800
G1 X74.180 Y145.820 Z34.100 E63.280 F1800
G1 X64.101 Y136.500 Z34.250 E63.560 F1800
G1 X61.069 Y123.111 Z34.400 E63.840 F1800
G1 X65.000 Y110.000 Z34.550 E64.120 F1800
G1 X71.997 Y99.817 Z34.700 E64.400 F1800
G1 X77.957 Y91.500 Z34.850 E64.680 F1800
G1 X82.180 Y82.180 Z35.000 E64.960 F1800
G1 X87.500 Y71.029 Z35.150 E65.240 F1800
G1 X96.889 Y61.069 Z35.300 E65.520 F1800
G1 X110.000 Y57.000 Z35.450 E65.800 F1800
G1 X123.111 Y61.069 Z35.600 E66.080 F1800
G1 X132.500 Y71.029 Z35.750 E66.360 F1800
G1 X137.820 Y82.180 Z35.900 E66.640 F1800
G1 X142.043 Y91.500 Z36.050 E66.920 F1800
G1 X148.003 Y99.817 Z36.200 E67.200 F1800
G1 X155.000 Y110.000 Z36.350 E67.480 F1800
G1 X158.931 Y123.111 Z36.500 E67.760 F1800
G1 X155.899 Y136.500 Z36.650 E68.040 F1800
G1 X145.820 Y145.820 Z36.800 E68.320 F1800
G1 X132.500 Y148.971 Z36.950 E68.600 F1800
G1 X120.183 Y148.003 Z37.100 E68.880 F1800
G1 X110.000 Y147.000 Z37.250 E69.160 F1800
G1 X99.817 Y148.003 Z37.400 E69.440 F1800
G1 X87.500 Y148.971 Z37.550 E69.720 F1800
G1 X74.180 Y145.820 Z37.700 E70.000 F1800
G1 X64.101 Y136.500 Z37.850 E70.280 F1800
G1 X61.069 Y123.111 Z38.000 E70.560 F1800
G1 X65.000 Y110.000 Z38.150 E70.840 F1800
G1 X71.997 Y99.817 Z38.300 E71.120 F1800
G1 X77.957 Y91.500 Z38.450 E71.400 F1800
G1 X82.180 Y82.180 Z38.600 E71.680 F1800
G1 X87.500 Y71.029 Z38.750 E71.960 F1800
G1 X96.889 Y61.069 Z38.900 E72.240 F1800
G1 X110.000 Y57.000 Z39.050 E72.520 F1800
G1 X123.111 Y61.069 Z39.200 E72.800 F1800
G1 X132.500 Y71.029 Z39.350 E73.080 F1800
G1 X137.820 Y82.180 Z39.500 E73.360 F1800
G1 X142.043 Y91.500 Z39.650 E73.640 F1800
G1 X148.003 Y99.817 Z39.800 E73.920 F1800
G1 X155.000 Y110.000 Z39.950 E74.200 F1800
G1 X158.931 Y123.111 Z40.100 E74.480 F1800
G1 X155.899 Y136.500 Z40.250 E74.760 F1800
G1 X145.820 Y145.820 Z40.400 E75.040 F1800
G1 X132.500 Y148.971 Z40.550 E75.320 F1800
G1 X120.183 Y148.003 Z40.700 E75.600 F1800
G1 X110.000 Y147.000 Z40.850 E75.880 F1800
G1 X99.817 Y148.003 Z41.000 E76.160 F1800
G1 X87.500 Y148.971 Z41.150 E76.440 F1800
G1 X74.180 Y145.820 Z41.300 E76.720 F1800
G1 X64.101 Y136.500 Z41.450 E77.000 F1800
G1 X61.069 Y123.111 Z41.600 E77.280 F1800
G1 X65.000 Y110.000 Z41.750 E77.560 F1800
G1 X71.997 Y99.817 Z41.900 E77.840 F1800
G1 X77.957 Y91.500 Z42.050 E78.120 F1800
G1 X82.180 Y82.180 Z42.200 E78.400 F1800
G1 X87.500 Y71.029 Z42.350 E78.680 F1800
G1 X96.889 Y61.069 Z42.500 E78.960 F1800
G1 X110.000 Y57.000 Z42.650 E79.240 F1800
G1 X123.111 Y61.069 Z42.800 E79.520 F1800
G1 X132.500 Y71.029 Z42.950 E79.800 F1800
G1 X137.820 Y82.180 Z43.100 E80.080 F1800
G1 X142.043 Y91.500 Z43.250 E80.360 F1800
G1 X148.003 Y99.817 Z43.400 E80.640 F1800
G1 X155.000 Y110.000 Z43.550 E80.920 F1800
G1 X158.931 Y123.111 Z43.700 E81.200 F1800
G1 X155.899 Y136.500 Z43.850 E81.480 F1800
G1 X145.820 Y145.820 Z44.000 E81.760 F1800
G1 X132.500 Y148.971 Z44.150 E82.040 F1800
G1 X120.183 Y148.003 Z44.300 E82.320 F1800
G1 X110.000 Y147.000 Z44.450 E82.600 F1800
G1 X99.817 Y148.003 Z44.600 E82.880 F1800
G1 X87.500 Y148.971 Z44.750 E83.160 F1800
G1 X74.180 Y145.820 Z44.900 E83.440 F1800
G1 X64.101 Y136.500 Z45.050 E83.720 F1800
G1 X61.069 Y123.111 Z45.200 E84.000 F1800
G1 X65.000 Y110.000 Z45.350 E84.280 F1800
G1 X71.997 Y99.817 Z45.500 E84.560 F1800
G1 X77.957 Y91.500 Z45.650 E84.840 F1800
G1 X82.180 Y82.180 Z45.800 E85.120 F1800
G1 X87.500 Y71.029 Z45.950 E85.400 F1800
G1 X96.889 Y61.069 Z46.100 E85.680 F1800
G1 X110.000 Y57.000 Z46.250 E85.960 F1800
G1 X123.111 Y61.069 Z46.400 E86.240 F1800
G1 X132.500 Y71.029 Z46.550 E86.520 F1800
G1 X137.820 Y82.180 Z46.700 E86.800 F1800
G1 X142.043 Y91.500 Z46.850 E87.080 F1800
G1 X148.003 Y99.817 Z47.000 E87.360 F1800
G1 X155.000 Y110.000 Z47.150 E87.640 F1800
G1 X158.931 Y123.111 Z47.300 E87.920 F1800
G1 X155.899 Y136.500 Z47.450 E88.200 F1800
G1 X145.820 Y145.820 Z47.600 E88.480 F1800
G1 X132.500 Y148.971 Z47.750 E88.760 F1800
G1 X120.183 Y148.003 Z47.900 E89.040 F1800
G1 X110.000 Y147.000 Z48.050 E89.320 F1800
G1 X99.817 Y148.003 Z48.200 E89.600 F1800
G1 X87.500 Y148.971 Z48.350 E89.880 F1800
G1 X74.180 Y145.820 Z48.500 E90.160 F1800
G1 X64.101 Y136.500 Z48.650 E90.440 F1800
G1 X61.069 Y123.111 Z48.800 E90.720 F1800
G1 X65.000 Y110.000 Z48.950 E91.000 F1800
G1 X71.997 Y99.817 Z49.100 E91.280 F1800
G1 X77.957 Y91.500 Z49.250 E91.560 F1800
G1 X82.180 Y82.180 Z49.400 E91.840 F1800
G1 X87.500 Y71.029 Z49.550 E92.120 F1800
G1 X96.889 Y61.069 Z49.700 E92.400 F1800
G1 X110.000 Y57.000 Z49.850 E92.680 F1800
G1 X123.111 Y61.069 Z50.000 E92.960 F1800
G1 X132.500 Y71.029 Z50.150 E93.240 F1800
G1 X137.820 Y82.180 Z50.300 E93.520 F1800
G1 X142.043 Y91.500 Z50.450 E93.800 F1800
G1 X148.003 Y99.817 Z50.600 E94.080 F1800
G1 X155.000 Y110.000 Z50.750 E94.360 F1800
G1 X158.931 Y123.111 Z50.900 E94.640 F1800
G1 X155.899 Y136.500 Z51.050 E94.920 F1800
G1 X145.820 Y145.820 Z51.200 E95.200 F1800
G1 X132.500 Y148.971 Z51.350 E95.480 F1800
G1 X120.183 Y148.003 Z51.500 E95.760 F1800
G1 X110.000 Y147.000 Z51.650 E96.040 F1800
G1 X99.817 Y148.003 Z51.800 E96.320 F1800
G1 X87.500 Y148.971 Z51.950 E96.600 F1800
G1 X74.180 Y145.820 Z52.100 E96.880 F1800
G1 X64.101 Y136.500 Z52.250 E97.160 F1800
G1 X61.069 Y123.111 Z52.400 E97.440 F1800
G1 X65.000 Y110.000 Z52.550 E97.720 F1800
G1 X71.997 Y99.817 Z52.700 E98.000 F1800
G1 X77.957 Y91.500 Z52.850 E98.280 F1800
G1 X82.180 Y82.180 Z53.000 E98.560 F1800
G1 X87.500 Y71.029 Z53.150 E98.840 F1800
G1 X96.889 Y61.069 Z53.300 E99.120 F1800
G1 X110.000 Y57.000 Z53.450 E99.400 F1800
G1 X123.111 Y61.069 Z53.600 E99.680 F1800
G1 X132.500 Y71.029 Z53.750 E99.960 F1800
G1 X137.820 Y82.180 Z53.900 E100.240 F1800
G1 X142.043 Y91.500 Z54.050 E100.520 F1800
G1 X148.003 Y99.817 Z54.200 E100.800 F1800
G1 X155.000 Y110.000 Z54.350 E101.080 F1800
G1 X158.931 Y123.111 Z54.500 E101.360 F1800
G1 X155.899 Y136.500 Z54.650 E101.640 F1800
G1 X145.820 Y145.820 Z54.800 E101.920 F1800
G1 X132.500 Y148.971 Z54.950 E102.200 F1800
G1 X120.183 Y148.003 Z55.100 E102.480 F1800
G1 X110.000 Y147.000 Z55.250 E102.760 F1800
G1 X99.817 Y148.003 Z55.400 E103.040 F1800
G1 X87.500 Y148.971 Z55.550 E103.320 F1800
G1 X74.180 Y145.820 Z55.700 E103.600 F1800
G1 X64.101 Y136.500 Z55.850 E103.880 F1800
G1 X61.069 Y123.111 Z56.000 E104.160 F1800
G1 X65.000 Y110.000 Z56.150 E104.440 F1800
G1 X71.997 Y99.817 Z56.300 E104.720 F1800
G1 X77.957 Y91.500 Z56.450 E105.000 F1800
G1 X82.180 Y82.180 Z56.600 E105.280 F1800
G1 X87.500 Y71.029 Z56.750 E105.560 F1800
G1 X96.889 Y61.069 Z56.900 E105.840 F1800
G1 X110.000 Y57.000 Z57.050 E106.120 F1800
G1 X123.111 Y61.069 Z57.200 E106.400 F1800
G1 X132.500 Y71.029 Z57.350 E106.680 F1800
G1 X137.820 Y82.180 Z57.500 E106.960 F1800
G1 X142.043 Y91.500 Z57.650 E107.240 F1800
G1 X148.003 Y99.817 Z57.800 E107.520 F1800
G1 X155.000 Y110.000 Z57.950 E107.800 F1800
G1 X158.931 Y123.111 Z58.100 E108.080 F1800
G1 X155.899 Y136.500 Z58.250 E108.360 F1800
G1 X145.820 Y145.820 Z58.400 E108.640 F1800
G1 X132.500 Y148.971 Z58.550 E108.920 F1800
G1 X120.183 Y148.003 Z58.700 E109.200 F1800
G1 X110.000 Y147.000 Z58.850 E109.480 F1800
G1 X99.817 Y148.003 Z59.000 E109.760 F1800
G1 X87.500 Y148.971 Z59.150 E110.040 F1800
G1 X74.180 Y145.820 Z59.300 E110.320 F1800
G1 X64.101 Y136.500 Z59.450 E110.600 F1800
G1 X61.069 Y123.111 Z59.600 E110.880 F1800
G1 X65.000 Y110.000 Z59.750 E111.160 F1800
G1 X71.997 Y99.817 Z59.900 E111.440 F1800
G1 X77.957 Y91.500 Z60.050 E111.720 F1800
G1 X82.180 Y82.180 Z60.200 E112.000 F1800
M104 S0 ; Extruder off
M140 S0 ; Bed off
M84     ; Disable motors
