; FLAVOR:Marlin
; TIME:1200
; Filename: calibration_cube.gcode
G21 ; metric values
G90 ; absolute positioning
M82 ; set extruder to absolute mode
M104 S205 ; set extruder temp
M140 S60 ; set bed temp
G28 ; home all axes
G1 Z15.0 F9000 ; move the platform down 15mm
M109 S205 ; wait for extruder temp
M190 S60 ; wait for bed temp
G92 E0 ; zero the extruded length
G1 F200 E3 ; extrude 3mm of feed stock
G92 E0 ; zero the extruded length again
G1 Z0.2 F3000
; LAYER:1
G1 Z0.20 F1000
G1 X10.0 Y10.0 E1.200 F1800
G1 X30.0 Y10.0 E1.400 F1800
G1 X30.0 Y30.0 E1.600 F1800
G1 X10.0 Y30.0 E1.800 F1800
G1 X10.0 Y10.0 E2.000 F1800
; LAYER:2
G1 Z0.40 F1000
G1 X10.0 Y10.0 E2.400 F1800
G1 X30.0 Y10.0 E2.800 F1800
G1 X30.0 Y30.0 E3.200 F1800
G1 X10.0 Y30.0 E3.600 F1800
G1 X10.0 Y10.0 E4.000 F1800
; LAYER:3
G1 Z0.60 F1000
G1 X10.0 Y10.0 E3.600 F1800
G1 X30.0 Y10.0 E4.200 F1800
G1 X30.0 Y30.0 E4.800 F1800
G1 X10.0 Y30.0 E5.400 F1800
G1 X10.0 Y10.0 E6.000 F1800
; LAYER:4
G1 Z0.80 F1000
G1 X10.0 Y10.0 E4.800 F1800
G1 X30.0 Y10.0 E5.600 F1800
G1 X30.0 Y30.0 E6.400 F1800
G1 X10.0 Y30.0 E7.200 F1800
G1 X10.0 Y10.0 E8.000 F1800
; LAYER:5
G1 Z1.00 F1000
G1 X10.0 Y10.0 E6.000 F1800
G1 X30.0 Y10.0 E7.000 F1800
G1 X30.0 Y30.0 E8.000 F1800
G1 X10.0 Y30.0 E9.000 F1800
G1 X10.0 Y10.0 E10.000 F1800
; LAYER:6
G1 Z1.20 F1000
G1 X10.0 Y10.0 E7.200 F1800
G1 X30.0 Y10.0 E8.400 F1800
G1 X30.0 Y30.0 E9.600 F1800
G1 X10.0 Y30.0 E10.800 F1800
G1 X10.0 Y10.0 E12.000 F1800
; LAYER:7
G1 Z1.40 F1000
G1 X10.0 Y10.0 E8.400 F1800
G1 X30.0 Y10.0 E9.800 F1800
G1 X30.0 Y30.0 E11.200 F1800
G1 X10.0 Y30.0 E12.600 F1800
G1 X10.0 Y10.0 E14.000 F1800
; LAYER:8
G1 Z1.60 F1000
G1 X10.0 Y10.0 E9.600 F1800
G1 X30.0 Y10.0 E11.200 F1800
G1 X30.0 Y30.0 E12.800 F1800
G1 X10.0 Y30.0 E14.400 F1800
G1 X10.0 Y10.0 E16.000 F1800
; LAYER:9
G1 Z1.80 F1000
G1 X10.0 Y10.0 E10.800 F1800
G1 X30.0 Y10.0 E12.600 F1800
G1 X30.0 Y30.0 E14.400 F1800
G1 X10.0 Y30.0 E16.200 F1800
G1 X10.0 Y10.0 E18.000 F1800
; LAYER:10
G1 Z2.00 F1000
G1 X10.0 Y10.0 E12.000 F1800
G1 X30.0 Y10.0 E14.000 F1800
G1 X30.0 Y30.0 E16.000 F1800
G1 X10.0 Y30.0 E18.000 F1800
G1 X10.0 Y10.0 E20.000 F1800
; LAYER:11
G1 Z2.20 F1000
G1 X10.0 Y10.0 E13.200 F1800
G1 X30.0 Y10.0 E15.400 F1800
G1 X30.0 Y30.0 E17.600 F1800
G1 X10.0 Y30.0 E19.800 F1800
G1 X10.0 Y10.0 E22.000 F1800
; LAYER:12
G1 Z2.40 F1000
G1 X10.0 Y10.0 E14.400 F1800
G1 X30.0 Y10.0 E16.800 F1800
G1 X30.0 Y30.0 E19.200 F1800
G1 X10.0 Y30.0 E21.600 F1800
G1 X10.0 Y10.0 E24.000 F1800
; LAYER:13
G1 Z2.60 F1000
G1 X10.0 Y10.0 E15.600 F1800
G1 X30.0 Y10.0 E18.200 F1800
G1 X30.0 Y30.0 E20.800 F1800
G1 X10.0 Y30.0 E23.400 F1800
G1 X10.0 Y10.0 E26.000 F1800
; LAYER:14
G1 Z2.80 F1000
G1 X10.0 Y10.0 E16.800 F1800
G1 X30.0 Y10.0 E19.600 F1800
G1 X30.0 Y30.0 E22.400 F1800
G1 X10.0 Y30.0 E25.200 F1800
G1 X10.0 Y10.0 E28.000 F1800
; LAYER:15
G1 Z3.00 F1000
G1 X10.0 Y10.0 E18.000 F1800
G1 X30.0 Y10.0 E21.000 F1800
G1 X30.0 Y30.0 E24.000 F1800
G1 X10.0 Y30.0 E27.000 F1800
G1 X10.0 Y10.0 E30.000 F1800
; LAYER:16
G1 Z3.20 F1000
G1 X10.0 Y10.0 E19.200 F1800
G1 X30.0 Y10.0 E22.400 F1800
G1 X30.0 Y30.0 E25.600 F1800
G1 X10.0 Y30.0 E28.800 F1800
G1 X10.0 Y10.0 E32.000 F1800
; LAYER:17
G1 Z3.40 F1000
G1 X10.0 Y10.0 E20.400 F1800
G1 X30.0 Y10.0 E23.800 F1800
G1 X30.0 Y30.0 E27.200 F1800
G1 X10.0 Y30.0 E30.600 F1800
G1 X10.0 Y10.0 E34.000 F1800
; LAYER:18
G1 Z3.60 F1000
G1 X10.0 Y10.0 E21.600 F1800
G1 X30.0 Y10.0 E25.200 F1800
G1 X30.0 Y30.0 E28.800 F1800
G1 X10.0 Y30.0 E32.400 F1800
G1 X10.0 Y10.0 E36.000 F1800
; LAYER:19
G1 Z3.80 F1000
G1 X10.0 Y10.0 E22.800 F1800
G1 X30.0 Y10.0 E26.600 F1800
G1 X30.0 Y30.0 E30.400 F1800
G1 X10.0 Y30.0 E34.200 F1800
G1 X10.0 Y10.0 E38.000 F1800
M104 S0 ; turn off temperature
M140 S0 ; turn off bed
G28 X0 ; home X axis
M84 ; disable motors
